NORAD_CAT_ID,OBJECT_NAME,OBJECT_TYPE,EPOCH,MEAN_MOTION,ECCENTRICITY,INCLINATION,RA_OF_ASC_NODE,ARG_OF_PERICENTER,MEAN_ANOMALY,BSTAR,MEAN_MOTION_DOT,MEAN_MOTION_DDOT,TLE_LINE0,TLE_LINE1,TLE_LINE2,SEMIMAJOR_AXIS,PERIOD,APOGEE,PERIGEE,DECAYED
50183.0,STARLINK-3281,PAYLOAD,2022-01-02 10:00:00,15.81420254,0.000106,53.2172,292.0099,100.9302,154.7281,-0.0044744,-0.00824697,0.0,0 STARLINK-3281,1 50183U 21125AD  22002.41667824 -.00824697  00000-0 -44744-2 0  9995,2 50183  53.2172 292.0099 0001060 100.9302 154.7281 15.81420254  2846,6704.56,91.057,327.136,325.715,0.0
50183.0,STARLINK-3281,PAYLOAD,2022-01-04 21:40:18,15.78071206,0.0003227,53.2198,279.6014,190.479,169.6165,-0.0010836,-0.00185009,0.0,0 STARLINK-3281,1 50183U 21125AD  22004.90299218 -.00185009  00000-0 -10836-2 0  9991,2 50183  53.2198 279.6014 0003227 190.4790 169.6165 15.78071206  6096,6714.043000000002,91.251,338.075,333.741,0.0
50183.0,STARLINK-3281,PAYLOAD,2022-01-06 04:06:54,15.75663349,0.0001740999999999,53.2187,273.2988,126.7741,233.344,-0.0022217,-0.0033428,0.0,0 STARLINK-3281,1 50183U 21125AD  22006.17146888 -.00334280  00000-0 -22217-2 0  9999,2 50183  53.2187 273.2988 0001741 126.7741 233.3440 15.75663349  3152,6720.880999999999,91.39,343.916,341.576,0.0
50183.0,STARLINK-3281,PAYLOAD,2022-01-06 05:38:21,15.75429474,0.000125,53.2183,272.9832,145.8532,214.257,-0.0025277,-0.00374552,0.0,0 STARLINK-3281,1 50183U 21125AD  22006.23497668 -.00374552  00000-0 -25277-2 0  9996,2 50183  53.2183 272.9832 0001250 145.8532 214.2570 15.75429474  3169,6721.545999999999,91.404,344.25199999999984,342.571,0.0
50183.0,STARLINK-3281,PAYLOAD,2022-01-06 17:49:25,15.75046817,0.0002179,53.2184,270.4653,180.6308,179.4711,-0.001464,-0.0021758,0.0,0 STARLINK-3281,1 50183U 21125AD  22006.74265955 -.00217580  00000-0 -14640-2 0  9993,2 50183  53.2184 270.4653 0002179 180.6308 179.4711 15.75046817  3247,6722.635,91.426,345.965,343.035,0.0
50183.0,STARLINK-3281,PAYLOAD,2022-01-06 20:52:38,15.74376514,0.0001349,53.2185,269.8383,120.2735,239.8419,-0.003014,-0.00423996,0.0,0 STARLINK-3281,1 50183U 21125AD  22006.86988679 -.00423996  00000-0 -30140-2 0  9994,2 50183  53.2185 269.8383 0001349 120.2735 239.8419 15.74376514  6408,6724.543000000002,91.465,347.315,345.501,0.0
50183.0,STARLINK-3281,PAYLOAD,2022-01-07 02:58:29,15.74000718,0.0004563,53.2183,268.58,161.6476,198.471,-0.0028809,-0.00400282,0.0,0 STARLINK-3281,1 50183U 21125AD  22007.12394871 -.00400282  00000-0 -28809-2 0  9991,2 50183  53.2183 268.5800 0004563 161.6476 198.4710 15.74000718  3308,6725.613,91.487,350.547,344.409,0.0
50183.0,STARLINK-3281,PAYLOAD,2022-01-07 04:28:56,15.76111789,0.0005711,53.2184,268.2615,232.7114,127.3387,0.0024698,0.00412576,0.0,0 STARLINK-3281,1 50183U 21125AD  22007.18676628  .00412576  00000-0  24698-2 0  9999,2 50183  53.2184 268.2615 0005711 232.7114 127.3387 15.76111789  3310,6719.606,91.364,345.309,337.634,0.0
50183.0,STARLINK-3281,PAYLOAD,2022-01-09 22:00:00,15.7324582,0.0001271,53.2175,254.7625,93.0462,253.0015,1.1251e-05,9.62e-06,0.0,0 STARLINK-3281,1 50183U 21125AD  22009.91667824  .00000962  00000-0  11251-4 0  9995,2 50183  53.2175 254.7625 0001271  93.0462 253.0015 15.73245820  3745,6727.765,91.531,350.485,348.774,0.0
50183.0,STARLINK-3281,PAYLOAD,2022-01-10 14:00:01,15.73123328,0.0001274999999999,53.2172,251.4618,103.0937,60.8884,0.00023935,0.00032993,0.0,0 STARLINK-3281,1 50183U 21125AD  22010.58334491  .00032993  00000-0  23935-3 0  9991,2 50183  53.2172 251.4618 0001275 103.0937  60.8884 15.73123328  3859,6728.114000000001,91.538,350.837,349.121,0.0
50183.0,STARLINK-3281,PAYLOAD,2022-01-10 22:00:00,15.73136833,0.0001346,53.2175,249.8144,93.3726,159.4475,1.7191e-05,1.787e-05,0.0,0 STARLINK-3281,1 50183U 21125AD  22010.91667824  .00001787  00000-0  17191-4 0  9992,2 50183  53.2175 249.8144 0001346  93.3726 159.4475 15.73136833  3736,6728.075,91.537,350.846,349.035,0.0
50183.0,STARLINK-3281,PAYLOAD,2022-01-11 06:00:00,15.73167133,0.0001240999999999,53.2176,248.165,90.656,251.0197,-6.0006e-06,-1.46e-05,0.0,0 STARLINK-3281,1 50183U 21125AD  22011.25001157 -.00001460  00000-0 -60006-5 0  9995,2 50183  53.2176 248.1650 0001241  90.6560 251.0197 15.73167133  3952,6727.989000000001,91.535,350.689,349.019,0.0
50183.0,STARLINK-3281,PAYLOAD,2022-01-11 14:00:01,15.7315677,0.0001317,53.2177,246.514,100.8962,329.6726,0.00042898,0.00059903,0.0,0 STARLINK-3281,1 50183U 21125AD  22011.58334491  .00059903  00000-0  42898-3 0  9991,2 50183  53.2177 246.5140 0001317 100.8962 329.6726 15.73156770  3723,6728.018,91.536,350.77,348.997,0.0
50183.0,STARLINK-3281,PAYLOAD,2022-01-11 22:00:00,15.73198092,0.000131,53.2174,244.8666,90.6601,68.815,5.968100000000003e-05,7.763e-05,0.0,0 STARLINK-3281,1 50183U 21125AD  22011.91667824  .00007763  00000-0  59681-4 0  9993,2 50183  53.2174 244.8666 0001310  90.6601  68.8150 15.73198092  4067,6727.901,91.533,350.647,348.884,0.0
50183.0,STARLINK-3281,PAYLOAD,2022-01-12 14:00:01,15.73217039,0.0001244,53.2171,241.5658,103.6015,233.7506,0.00039766,0.000556,0.0,0 STARLINK-3281,1 50183U 21125AD  22012.58334491  .00055600  00000-0  39766-3 0  9992,2 50183  53.2171 241.5658 0001244 103.6015 233.7506 15.73217039  3733,6727.847,91.532,350.5490000000001,348.875,0.0
50183.0,STARLINK-3281,PAYLOAD,2022-01-13 14:00:01,15.73235186,0.0001101,53.2173,236.6177,102.5628,141.6397,-0.00024369,-0.0003473,0.0,0 STARLINK-3281,1 50183U 21125AD  22013.58334491 -.00034730  00000-0 -24369-3 0  9999,2 50183  53.2173 236.6177 0001101 102.5628 141.6397 15.73235186  4320,6727.795,91.531,350.401,348.9190000000001,0.0
50183.0,STARLINK-3281,PAYLOAD,2022-01-13 22:00:00,15.73189472,0.0001302,53.2169,234.9703,88.5084,244.6721,-7.1832e-05,-0.00010683,0.0,0 STARLINK-3281,1 50183U 21125AD  22013.91667824 -.00010683  00000-0 -71832-4 0  9994,2 50183  53.2169 234.9703 0001302  88.5084 244.6721 15.73189472  3693,6727.925,91.534,350.666,348.914,0.0
50183.0,STARLINK-3281,PAYLOAD,2022-01-14 14:00:01,15.73233218,8.56e-05,53.2165,231.6694,107.7514,43.3054,-0.00016366,-0.00023555,0.0,0 STARLINK-3281,1 50183U 21125AD  22014.58334491 -.00023555  00000-0 -16366-3 0  9991,2 50183  53.2165 231.6694 0000856 107.7514  43.3054 15.73233218  3711,6727.8,91.531,350.241,349.09,0.0
50183.0,STARLINK-3281,PAYLOAD,2022-01-14 22:00:00,15.73186734,9.45e-05,53.2166,230.0221,85.4794,154.5581,6.3136e-05,8.245e-05,0.0,0 STARLINK-3281,1 50183U 21125AD  22014.91667824  .00008245  00000-0  63136-4 0  9992,2 50183  53.2166 230.0221 0000945  85.4794 154.5581 15.73186734  3723,6727.933000000001,91.534,350.434,349.162,0.0
50183.0,STARLINK-3281,PAYLOAD,2022-01-15 14:00:01,15.73316769,0.0001289,53.2169,226.7158,90.5019,327.3909,-0.0018116,-0.00248736,0.0,0 STARLINK-3281,1 50183U 21125AD  22015.58335648 -.00248736  00000-0 -18116-2 0  9991,2 50183  53.2169 226.7158 0001289  90.5019 327.3909 15.73316769  4634,6727.562,91.526,350.2940000000001,348.56,0.0
50183.0,STARLINK-3281,PAYLOAD,2022-01-15 22:00:01,15.73161019,9.43e-05,53.2161,225.0738,80.5932,66.2723,0.00034122,0.00047458,0.0,0 STARLINK-3281,1 50183U 21125AD  22015.91668981  .00047458  00000-0  34122-3 0  9999,2 50183  53.2161 225.0738 0000943  80.5932  66.2723 15.73161019  4696,6728.005999999999,91.535,350.506,349.237,0.0
50183.0,STARLINK-3281,PAYLOAD,2022-01-16 14:00:01,15.73202762,0.0001032,53.2157,221.7729,96.9366,227.7179,0.00015039,0.0002054,0.0,0 STARLINK-3281,1 50183U 21125AD  22016.58334491  .00020540  00000-0  15039-3 0  9998,2 50183  53.2157 221.7729 0001032  96.9366 227.7179 15.73202762  3718,6727.887,91.533,350.44699999999995,349.05800000000005,0.0
50183.0,STARLINK-3281,PAYLOAD,2022-01-16 22:00:00,15.7318027,0.0001123,53.2159,220.1257,81.7302,331.8368,0.0003974,0.00055474,0.0,0 STARLINK-3281,1 50183U 21125AD  22016.91667824  .00055474  00000-0  39740-3 0  9993,2 50183  53.2159 220.1257 0001123  81.7302 331.8368 15.73180270  3718,6727.951,91.534,350.57199999999995,349.061,0.0
50183.0,STARLINK-3281,PAYLOAD,2022-01-17 00:00:00,15.73181194,0.0001088,53.2158,219.7134,79.0183,86.7806,0.00047724,0.00066837,0.0,0 STARLINK-3281,1 50183U 21125AD  22017.00001157  .00066837  00000-0  47724-3 0  9991,2 50183  53.2158 219.7134 0001088  79.0183  86.7806 15.73181194  4868,6727.949000000001,91.534,350.546,349.082,0.0
50183.0,STARLINK-3281,PAYLOAD,2022-01-17 06:00:00,15.73254104,0.0001099,53.2158,218.4748,83.9729,58.5136,-0.00098473,-0.00136907,0.0,0 STARLINK-3281,1 50183U 21125AD  22017.25001157 -.00136907  00000-0 -98473-3 0  9993,2 50183  53.2158 218.4748 0001099  83.9729  58.5136 15.73254104  4907,6727.741,91.53,350.345,348.867,0.0
50183.0,STARLINK-3281,PAYLOAD,2022-01-17 14:00:01,15.73151254,0.0001126,53.2159,216.8246,90.9221,140.4994,3.0738e-05,3.688e-05,0.0,0 STARLINK-3281,1 50183U 21125AD  22017.58334491  .00003688  00000-0  30738-4 0  9997,2 50183  53.2159 216.8246 0001126  90.9221 140.4994 15.73151254  3712,6728.034000000002,91.536,350.657,349.142,0.0
50183.0,STARLINK-3281,PAYLOAD,2022-01-17 22:00:00,15.73133679,0.0001131,53.2156,215.1773,75.4981,244.7925,0.00041723,0.00058175,0.0,0 STARLINK-3281,1 50183U 21125AD  22017.91667824  .00058175  00000-0  41723-3 0  9999,2 50183  53.2156 215.1773 0001131  75.4981 244.7925 15.73133679  5000,6728.084,91.537,350.71,349.18800000000016,0.0
50183.0,STARLINK-3281,PAYLOAD,2022-01-18 14:00:01,15.73205668,0.0001025,53.2154,211.8765,90.457,47.6057,0.00025936,0.00035944,0.0,0 STARLINK-3281,1 50183U 21125AD  22018.58334491  .00035944  00000-0  25936-3 0  9991,2 50183  53.2154 211.8765 0001025  90.4570  47.6057 15.73205668  3704,6727.879,91.533,350.434,349.05400000000014,0.0
50183.0,STARLINK-3281,PAYLOAD,2022-01-18 22:00:00,15.73208321,0.0001057,53.2157,210.229,71.6971,155.3233,0.00053929,0.00075778,0.0,0 STARLINK-3281,1 50183U 21125AD  22018.91667824  .00075778  00000-0  53929-3 0  9999,2 50183  53.2157 210.2290 0001057  71.6971 155.3233 15.73208321  5168,6727.871,91.533,350.4480000000001,349.025,0.0
